[{"OBJECT_NAME":"STRELA 3","OBJECT_ID":"2010-043B","EPOCH":"2026-03-09T23:16:43.393152","MEAN_MOTION":12.40789721,"ECCENTRICITY":0.00064043,"INCLINATION":82.4589,"RA_OF_ASC_NODE":140.2331,"ARG_OF_PERICENTER":301.9349,"MEAN_ANOMALY":58.1106,"EPHEMERIS_TYPE":0,"CLASSIFICATION_TYPE":"U","NORAD_CAT_ID":37153,"ELEMENT_SET_NO":999,"REV_AT_EPOCH":70206,"BSTAR":-0.00039602417,"MEAN_MOTION_DOT":-4.4e-7,"MEAN_MOTION_DDOT":0},{"OBJECT_NAME":"COSMOS 1794","OBJECT_ID":"1986-092A","EPOCH":"2026-03-09T22:27:17.259552","MEAN_MOTION":12.45669068,"ECCENTRICITY":0.00206833,"INCLINATION":74.0108,"RA_OF_ASC_NODE":242.6309,"ARG_OF_PERICENTER":97.0587,"MEAN_ANOMALY":336.7101,"EPHEMERIS_TYPE":0,"CLASSIFICATION_TYPE":"U","NORAD_CAT_ID":17138,"ELEMENT_SET_NO":999,"REV_AT_EPOCH":78694,"BSTAR":8.8669793e-5,"MEAN_MOTION_DOT":-3.0e-8,"MEAN_MOTION_DDOT":0}]
